ONEWEB-0685             
1 54679U 22166AP  26195.19148413  .00000057  00000+0  10653-3 0  9991
2 54679  87.9232 238.6051 0001727  92.8852 267.2479 13.21848005174988
ONEWEB-0712             
1 54680U 22166AQ  26195.11492623 -.00000043  00000+0 -14710-3 0  9995
2 54680  87.9081 223.4260 0001788 106.3462 253.7866 13.16595073175609
ONEWEB-0714             
1 54681U 22166AR  26195.12120469  .00000017  00000+0  96274-5 0  9999
2 54681  87.9235 238.6172 0002012 105.0633 255.0723 13.21825847175099
ONEWEB-0532             
1 55140U 23004A   26194.98984609  .00000002  00000+0 -26955-4 0  9992
2 55140  87.9141   0.5314 0001975  82.8147 277.3209 13.17648726171118
ONEWEB-0533             
1 55141U 23004B   26194.83546186 -.00000390  00000+0 -11198-2 0  9993
2 55141  87.8962 345.3711 0001650  93.8676 266.2641 13.12442592171552
ONEWEB-0541             
1 55142U 23004C   26195.03877405  .00000430  00000+0  11773-2 0  9990
2 55142  87.8893  15.7129 0002034  89.0085 271.1275 13.11414990169460
ONEWEB-0543             
1 55143U 23004D   26194.87239796  .00000005  00000+0 -19231-4 0  9995
2 55143  87.9185 330.1614 0001875 105.0325 255.1014 13.18686543173210
ONEWEB-0544             
1 55144U 23004E   26194.94152726  .00000020  00000+0  18548-4 0  9997
2 55144  87.9186 330.1471 0002048 101.1703 258.9660 13.18686887173223
ONEWEB-0560             
1 55145U 23004F   26194.93478479  .00000016  00000+0  76684-5 0  9994
2 55145  87.9187 330.1378 0002073 104.8512 255.2850 13.18684481173237
ONEWEB-0565             
1 55146U 23004G   26194.92804652 -.00000006  00000+0 -47362-4 0  9991
2 55146  87.9177 330.1647 0002287  93.6858 266.4536 13.18687228173227
ONEWEB-0567             
1 55147U 23004H   26194.92129634 -.00000011  00000+0 -60151-4 0  9999
2 55147  87.9187 330.1523 0002256  98.7816 261.3572 13.18687594173228
ONEWEB-0569             
1 55148U 23004J   26194.82262537 -.00000297  00000+0 -84819-3 0  9991
2 55148  87.8989 314.9206 0002682 113.0142 247.1270 13.13471240173672
ONEWEB-0570             
1 55149U 23004K   26194.83698867  .00000004  00000+0 -23051-4 0  9999
2 55149  87.9187 330.1674 0002078  88.9658 271.1712 13.18686758173208
ONEWEB-0571             
1 55150U 23004L   26194.83025641  .00000357  00000+0  87312-3 0  9994
2 55150  87.9186 330.1677 0003151 102.1887 257.9598 13.18683713173211
ONEWEB-0572             
1 55151U 23004M   26195.02106047  .00000000  00000+0 -33333-4 0  9998
2 55151  87.9143   0.5265 0002037  91.7786 268.3579 13.17651009171012
ONEWEB-0573             
1 55152U 23004N   26194.89936360 -.00000063  00000+0 -19281-3 0  9997
2 55152  87.9184 330.1560 0002746  96.0056 264.1389 13.18687060173217
