{"fetched_at":"2026-07-14T17:40:23.520Z","source":"https://celestrak.org/NORAD/elements/gp.php?GROUP=oneweb&FORMAT=JSON","constellation":"oneweb","records":[{"OBJECT_NAME":"ONEWEB-0685","OBJECT_ID":"2022-166AP","EPOCH":"2026-07-14T04:35:44.228832","CLASSIFICATION_TYPE":"U","MEAN_MOTION":13.21848005,"ECCENTRICITY":0.0001727,"INCLINATION":87.9232,"RA_OF_ASC_NODE":238.6051,"ARG_OF_PERICENTER":92.8852,"MEAN_ANOMALY":267.2479,"EPHEMERIS_TYPE":0,"NORAD_CAT_ID":54679,"ELEMENT_SET_NO":999,"REV_AT_EPOCH":17498,"BSTAR":0.00010653,"MEAN_MOTION_DOT":5.7e-7,"MEAN_MOTION_DDOT":0},{"OBJECT_NAME":"ONEWEB-0712","OBJECT_ID":"2022-166AQ","EPOCH":"2026-07-14T02:45:29.626272","CLASSIFICATION_TYPE":"U","MEAN_MOTION":13.16595073,"ECCENTRICITY":0.0001788,"INCLINATION":87.9081,"RA_OF_ASC_NODE":223.426,"ARG_OF_PERICENTER":106.3462,"MEAN_ANOMALY":253.7866,"EPHEMERIS_TYPE":0,"NORAD_CAT_ID":54680,"ELEMENT_SET_NO":999,"REV_AT_EPOCH":17560,"BSTAR":-0.0001471,"MEAN_MOTION_DOT":-4.3e-7,"MEAN_MOTION_DDOT":0},{"OBJECT_NAME":"ONEWEB-0714","OBJECT_ID":"2022-166AR","EPOCH":"2026-07-14T02:54:32.085216","CLASSIFICATION_TYPE":"U","MEAN_MOTION":13.21825847,"ECCENTRICITY":0.0002012,"INCLINATION":87.9235,"RA_OF_ASC_NODE":238.6172,"ARG_OF_PERICENTER":105.0633,"MEAN_ANOMALY":255.0723,"EPHEMERIS_TYPE":0,"NORAD_CAT_ID":54681,"ELEMENT_SET_NO":999,"REV_AT_EPOCH":17509,"BSTAR":0.0000096274,"MEAN_MOTION_DOT":1.7e-7,"MEAN_MOTION_DDOT":0},{"OBJECT_NAME":"ONEWEB-0532","OBJECT_ID":"2023-004A","EPOCH":"2026-07-13T23:45:22.702176","CLASSIFICATION_TYPE":"U","MEAN_MOTION":13.17648726,"ECCENTRICITY":0.0001975,"INCLINATION":87.9141,"RA_OF_ASC_NODE":0.5314,"ARG_OF_PERICENTER":82.8147,"MEAN_ANOMALY":277.3209,"EPHEMERIS_TYPE":0,"NORAD_CAT_ID":55140,"ELEMENT_SET_NO":999,"REV_AT_EPOCH":17111,"BSTAR":-0.000026955,"MEAN_MOTION_DOT":2e-8,"MEAN_MOTION_DDOT":0},{"OBJECT_NAME":"ONEWEB-0533","OBJECT_ID":"2023-004B","EPOCH":"2026-07-13T20:03:03.904704","CLASSIFICATION_TYPE":"U","MEAN_MOTION":13.12442592,"ECCENTRICITY":0.000165,"INCLINATION":87.8962,"RA_OF_ASC_NODE":345.3711,"ARG_OF_PERICENTER":93.8676,"MEAN_ANOMALY":266.2641,"EPHEMERIS_TYPE":0,"NORAD_CAT_ID":55141,"ELEMENT_SET_NO":999,"REV_AT_EPOCH":17155,"BSTAR":-0.0011198,"MEAN_MOTION_DOT":-0.0000039,"MEAN_MOTION_DDOT":0},{"OBJECT_NAME":"ONEWEB-0541","OBJECT_ID":"2023-004C","EPOCH":"2026-07-14T00:55:50.077920","CLASSIFICATION_TYPE":"U","MEAN_MOTION":13.1141499,"ECCENTRICITY":0.0002034,"INCLINATION":87.8893,"RA_OF_ASC_NODE":15.7129,"ARG_OF_PERICENTER":89.0085,"MEAN_ANOMALY":271.1275,"EPHEMERIS_TYPE":0,"NORAD_CAT_ID":55142,"ELEMENT_SET_NO":999,"REV_AT_EPOCH":16946,"BSTAR":0.0011773,"MEAN_MOTION_DOT":0.0000043,"MEAN_MOTION_DDOT":0},{"OBJECT_NAME":"ONEWEB-0543","OBJECT_ID":"2023-004D","EPOCH":"2026-07-13T20:56:15.183744","CLASSIFICATION_TYPE":"U","MEAN_MOTION":13.18686543,"ECCENTRICITY":0.0001875,"INCLINATION":87.9185,"RA_OF_ASC_NODE":330.1614,"ARG_OF_PERICENTER":105.0325,"MEAN_ANOMALY":255.1014,"EPHEMERIS_TYPE":0,"NORAD_CAT_ID":55143,"ELEMENT_SET_NO":999,"REV_AT_EPOCH":17321,"BSTAR":-0.000019231,"MEAN_MOTION_DOT":5e-8,"MEAN_MOTION_DDOT":0},{"OBJECT_NAME":"ONEWEB-0544","OBJECT_ID":"2023-004E","EPOCH":"2026-07-13T22:35:47.955264","CLASSIFICATION_TYPE":"U","MEAN_MOTION":13.18686887,"ECCENTRICITY":0.0002048,"INCLINATION":87.9186,"RA_OF_ASC_NODE":330.1471,"ARG_OF_PERICENTER":101.1703,"MEAN_ANOMALY":258.966,"EPHEMERIS_TYPE":0,"NORAD_CAT_ID":55144,"ELEMENT_SET_NO":999,"REV_AT_EPOCH":17322,"BSTAR":0.000018548,"MEAN_MOTION_DOT":2e-7,"MEAN_MOTION_DDOT":0},{"OBJECT_NAME":"ONEWEB-0560","OBJECT_ID":"2023-004F","EPOCH":"2026-07-13T22:26:05.405856","CLASSIFICATION_TYPE":"U","MEAN_MOTION":13.18684481,"ECCENTRICITY":0.0002073,"INCLINATION":87.9187,"RA_OF_ASC_NODE":330.1378,"ARG_OF_PERICENTER":104.8512,"MEAN_ANOMALY":255.285,"EPHEMERIS_TYPE":0,"NORAD_CAT_ID":55145,"ELEMENT_SET_NO":999,"REV_AT_EPOCH":17323,"BSTAR":0.0000076684,"MEAN_MOTION_DOT":1.6e-7,"MEAN_MOTION_DDOT":0},{"OBJECT_NAME":"ONEWEB-0565","OBJECT_ID":"2023-004G","EPOCH":"2026-07-13T22:16:23.219328","CLASSIFICATION_TYPE":"U","MEAN_MOTION":13.18687228,"ECCENTRICITY":0.0002287,"INCLINATION":87.9177,"RA_OF_ASC_NODE":330.1647,"ARG_OF_PERICENTER":93.6858,"MEAN_ANOMALY":266.4536,"EPHEMERIS_TYPE":0,"NORAD_CAT_ID":55146,"ELEMENT_SET_NO":999,"REV_AT_EPOCH":17322,"BSTAR":-0.000047362,"MEAN_MOTION_DOT":-6e-8,"MEAN_MOTION_DDOT":0},{"OBJECT_NAME":"ONEWEB-0567","OBJECT_ID":"2023-004H","EPOCH":"2026-07-13T22:06:40.003776","CLASSIFICATION_TYPE":"U","MEAN_MOTION":13.18687594,"ECCENTRICITY":0.0002256,"INCLINATION":87.9187,"RA_OF_ASC_NODE":330.1523,"ARG_OF_PERICENTER":98.7816,"MEAN_ANOMALY":261.3572,"EPHEMERIS_TYPE":0,"NORAD_CAT_ID":55147,"ELEMENT_SET_NO":999,"REV_AT_EPOCH":17322,"BSTAR":-0.000060151,"MEAN_MOTION_DOT":-1.1e-7,"MEAN_MOTION_DDOT":0},{"OBJECT_NAME":"ONEWEB-0569","OBJECT_ID":"2023-004J","EPOCH":"2026-07-13T19:44:34.831968","CLASSIFICATION_TYPE":"U","MEAN_MOTION":13.1347124,"ECCENTRICITY":0.0002682,"INCLINATION":87.8989,"RA_OF_ASC_NODE":314.9206,"ARG_OF_PERICENTER":113.0142,"MEAN_ANOMALY":247.127,"EPHEMERIS_TYPE":0,"NORAD_CAT_ID":55148,"ELEMENT_SET_NO":999,"REV_AT_EPOCH":17367,"BSTAR":-0.00084819,"MEAN_MOTION_DOT":-0.00000297,"MEAN_MOTION_DDOT":0},{"OBJECT_NAME":"ONEWEB-0570","OBJECT_ID":"2023-004K","EPOCH":"2026-07-13T20:05:15.821088","CLASSIFICATION_TYPE":"U","MEAN_MOTION":13.18686758,"ECCENTRICITY":0.0002078,"INCLINATION":87.9187,"RA_OF_ASC_NODE":330.1674,"ARG_OF_PERICENTER":88.9658,"MEAN_ANOMALY":271.1712,"EPHEMERIS_TYPE":0,"NORAD_CAT_ID":55149,"ELEMENT_SET_NO":999,"REV_AT_EPOCH":17320,"BSTAR":-0.000023051,"MEAN_MOTION_DOT":4e-8,"MEAN_MOTION_DDOT":0},{"OBJECT_NAME":"ONEWEB-0571","OBJECT_ID":"2023-004L","EPOCH":"2026-07-13T19:55:34.153824","CLASSIFICATION_TYPE":"U","MEAN_MOTION":13.18683713,"ECCENTRICITY":0.0003151,"INCLINATION":87.9186,"RA_OF_ASC_NODE":330.1677,"ARG_OF_PERICENTER":102.1887,"MEAN_ANOMALY":257.9598,"EPHEMERIS_TYPE":0,"NORAD_CAT_ID":55150,"ELEMENT_SET_NO":999,"REV_AT_EPOCH":17321,"BSTAR":0.00087312,"MEAN_MOTION_DOT":0.00000357,"MEAN_MOTION_DDOT":0},{"OBJECT_NAME":"ONEWEB-0572","OBJECT_ID":"2023-004M","EPOCH":"2026-07-14T00:30:19.624608","CLASSIFICATION_TYPE":"U","MEAN_MOTION":13.17651009,"ECCENTRICITY":0.0002037,"INCLINATION":87.9143,"RA_OF_ASC_NODE":0.5265,"ARG_OF_PERICENTER":91.7786,"MEAN_ANOMALY":268.3579,"EPHEMERIS_TYPE":0,"NORAD_CAT_ID":55151,"ELEMENT_SET_NO":999,"REV_AT_EPOCH":17101,"BSTAR":-0.000033333,"MEAN_MOTION_DOT":0,"MEAN_MOTION_DDOT":0},{"OBJECT_NAME":"ONEWEB-0573","OBJECT_ID":"2023-004N","EPOCH":"2026-07-13T21:35:05.015040","CLASSIFICATION_TYPE":"U","MEAN_MOTION":13.1868706,"ECCENTRICITY":0.0002746,"INCLINATION":87.9184,"RA_OF_ASC_NODE":330.156,"ARG_OF_PERICENTER":96.0056,"MEAN_ANOMALY":264.1389,"EPHEMERIS_TYPE":0,"NORAD_CAT_ID":55152,"ELEMENT_SET_NO":999,"REV_AT_EPOCH":17321,"BSTAR":-0.00019281,"MEAN_MOTION_DOT":-6.3e-7,"MEAN_MOTION_DDOT":0}]}
